[{"OBJECT_NAME":"STARLINK-35768","OBJECT_ID":"2025-280M","EPOCH":"2026-03-09T22:51:15.171552","MEAN_MOTION":14.98340428,"ECCENTRICITY":0.00025282,"INCLINATION":70.0022,"RA_OF_ASC_NODE":333.8535,"ARG_OF_PERICENTER":242.7162,"MEAN_ANOMALY":117.374,"EPHEMERIS_TYPE":0,"CLASSIFICATION_TYPE":"U","NORAD_CAT_ID":66832,"ELEMENT_SET_NO":999,"REV_AT_EPOCH":1611,"BSTAR":0.00028168283,"MEAN_MOTION_DOT":3.27e-5,"MEAN_MOTION_DDOT":0},{"OBJECT_NAME":"JD 2","OBJECT_ID":"1984-012D","EPOCH":"2026-03-09T22:15:36.882144","MEAN_MOTION":13.7538851,"ECCENTRICITY":0.07532678,"INCLINATION":63.3059,"RA_OF_ASC_NODE":308.0564,"ARG_OF_PERICENTER":126.7288,"MEAN_ANOMALY":240.5384,"EPHEMERIS_TYPE":0,"CLASSIFICATION_TYPE":"U","NORAD_CAT_ID":14729,"ELEMENT_SET_NO":999,"REV_AT_EPOCH":33025,"BSTAR":0.00052355644,"MEAN_MOTION_DOT":4.484e-5,"MEAN_MOTION_DDOT":0}]
